H1 CPF  1  HTS 2022  9 22 12  7651 ajisai           NONE
H2  8606101 1500    16908 2022 09 22  0  0  0 2022 09 27  0  0  0   240 1 1  0 0 0
H5  1.0100 
H9 
10 0 59848  77520.00000  0    3874907.762   -3329552.881   -5978343.379
10 0 59848  77760.00000  0    4980234.196   -2187731.901   -5677319.587
10 0 59848  78000.00000  0    5894265.553    -979161.631   -5109073.210
10 0 59848  78240.00000  0    6575566.327     247217.002   -4300128.551
10 0 59848  78480.00000  0    6991784.967    1442816.966   -3288402.005
10 0 59848  78720.00000  0    7121279.705    2561331.023   -2121467.377
10 0 59848  78960.00000  0    6954321.477    3560535.767    -854334.606
10 0 59848  79200.00000  0    6493781.816    4403896.088     453164.721
10 0 59848  79440.00000  0    5755244.914    5061890.424    1739251.073
10 0 59848  79680.00000  0    4766524.621    5513000.101    2943176.136
10 0 59848  79920.00000  0    3566598.347    5744323.371    4008147.803
10 0 59848  80160.00000  0    2204011.274    5751796.521    4884039.487
10 0 59848  80400.00000  0     734841.041    5540037.528    5529746.028
10 0 59848  80640.00000  0    -779673.938    5121846.832    5915078.896
10 0 59848  80880.00000  0   -2275728.601    4517419.163    6022124.324
10 0 59848  81120.00000  0   -3689655.956    3753325.620    5846025.344
10 0 59848  81360.00000  0   -4960641.738    2861322.446    5395174.031
10 0 59848  81600.00000  0   -6033354.353    1877033.058    4690809.492
10 0 59848  81840.00000  0   -6860381.553     838547.572    3766031.955
10 0 59848  82080.00000  0   -7404367.789    -215010.187    2664274.462
10 0 59848  82320.00000  0   -7639758.956   -1244903.962    1437291.951
10 0 59848  82560.00000  0   -7554061.517   -2214152.106     142745.081
10 0 59848  82800.00000  0   -7148534.551   -3088792.418   -1158513.107
10 0 59848  83040.00000  0   -6438265.086   -3838997.420   -2405313.587
10 0 59848  83280.00000  0   -5451612.562   -4439999.772   -3539064.393
10 0 59848  83520.00000  0   -4229048.643   -4872798.285   -4506509.990
10 0 59848  83760.00000  0   -2821455.312   -5124631.431   -5262220.930
10 0 59848  84000.00000  0   -1287967.892   -5189220.229   -5770700.611
10 0 59848  84240.00000  0     306535.819   -5066793.792   -6008021.108
10 0 59848  84480.00000  0    1894192.009   -4763916.806   -5962926.753
10 0 59848  84720.00000  0    3407044.091   -4293141.629   -5637368.164
10 0 59848  84960.00000  0    4779969.066   -3672503.313   -5046445.951
99
